{
  "norad_id": 57080,
  "name": "STARLINK-6243",
  "history": [
    {
      "epoch": "2026-04-11T19:41:20.508000Z",
      "apogee_km": 483.54888731810934,
      "perigee_km": 482.5938071161763,
      "latitude_deg": 4.8258594585653057e-05,
      "longitude_deg": 133.95642320561552,
      "height_km": 482.6454622666076,
      "semi_major_axis_km": 6861.208347217143,
      "eccentricity": 6.96e-05,
      "inclination_deg": 43.0008,
      "raan_deg": 269.3262,
      "arg_perigee_deg": 295.0271,
      "mean_anomaly_deg": 65.0509,
      "mean_motion_rev_day": 15.27572569
    },
    {
      "epoch": "2026-04-13T03:04:27.861600Z",
      "apogee_km": 483.95354236828643,
      "perigee_km": 482.16400528655777,
      "latitude_deg": -2.765716753174707e-05,
      "longitude_deg": 14.502349943762445,
      "height_km": 482.78648124351537,
      "semi_major_axis_km": 6861.195773827422,
      "eccentricity": 0.00013041,
      "inclination_deg": 43.002,
      "raan_deg": 261.9418,
      "arg_perigee_deg": 273.1486,
      "mean_anomaly_deg": 86.9216,
      "mean_motion_rev_day": 15.27576768
    },
    {
      "epoch": "2026-04-14T18:18:22.948704Z",
      "apogee_km": 483.9306666623834,
      "perigee_km": 482.21399208817456,
      "latitude_deg": -2.5125883450436092e-05,
      "longitude_deg": 135.18012500704702,
      "height_km": 482.81671377788217,
      "semi_major_axis_km": 6861.209329375279,
      "eccentricity": 0.0001251,
      "inclination_deg": 43.002,
      "raan_deg": 252.7103,
      "arg_perigee_deg": 272.1648,
      "mean_anomaly_deg": 87.906,
      "mean_motion_rev_day": 15.27572241
    },
    {
      "epoch": "2026-04-15T16:16:34.046112Z",
      "apogee_km": 483.8964585782205,
      "perigee_km": 482.2140942320457,
      "latitude_deg": -9.970075738047494e-06,
      "longitude_deg": 159.56203814209454,
      "height_km": 482.8228988374593,
      "semi_major_axis_km": 6861.192276405132,
      "eccentricity": 0.0001226,
      "inclination_deg": 43.0021,
      "raan_deg": 247.5407,
      "arg_perigee_deg": 270.6246,
      "mean_anomaly_deg": 89.4465,
      "mean_motion_rev_day": 15.27577936
    },
    {
      "epoch": "2026-04-16T15:48:54.933696Z",
      "apogee_km": 483.923502466886,
      "perigee_km": 482.197225210145,
      "latitude_deg": 3.597620347366936e-05,
      "longitude_deg": 159.9691394858306,
      "height_km": 482.8322078534801,
      "semi_major_axis_km": 6861.197363838515,
      "eccentricity": 0.0001258,
      "inclination_deg": 43.0023,
      "raan_deg": 242.0015,
      "arg_perigee_deg": 270.3314,
      "mean_anomaly_deg": 89.7394,
      "mean_motion_rev_day": 15.27576237
    },
    {
      "epoch": "2026-04-17T16:55:24.787200Z",
      "apogee_km": 483.90338447908925,
      "perigee_km": 482.1882260014363,
      "latitude_deg": -3.0038098845389582e-05,
      "longitude_deg": 136.40452001511565,
      "height_km": 482.8345436450097,
      "semi_major_axis_km": 6861.1828052402625,
      "eccentricity": 0.00012499,
      "inclination_deg": 43.0034,
      "raan_deg": 236.0925,
      "arg_perigee_deg": 269.2128,
      "mean_anomaly_deg": 90.858,
      "mean_motion_rev_day": 15.27581099
    },
    {
      "epoch": "2026-04-18T14:53:36.366720Z",
      "apogee_km": 483.86227704394605,
      "perigee_km": 482.2416642090848,
      "latitude_deg": -2.772263333318851e-05,
      "longitude_deg": 160.78500377667592,
      "height_km": 482.860180393225,
      "semi_major_axis_km": 6861.188970626516,
      "eccentricity": 0.0001181,
      "inclination_deg": 43.0021,
      "raan_deg": 230.9235,
      "arg_perigee_deg": 267.7749,
      "mean_anomaly_deg": 92.2967,
      "mean_motion_rev_day": 15.2757904
    },
    {
      "epoch": "2026-04-19T14:25:57.218016Z",
      "apogee_km": 483.7536785383518,
      "perigee_km": 482.36222820180865,
      "latitude_deg": 3.0930016844446076e-05,
      "longitude_deg": 161.19146763629453,
      "height_km": 482.93076047595486,
      "semi_major_axis_km": 6861.19495337008,
      "eccentricity": 0.0001014,
      "inclination_deg": 43.0007,
      "raan_deg": 225.3835,
      "arg_perigee_deg": 262.0369,
      "mean_anomaly_deg": 98.0368,
      "mean_motion_rev_day": 15.27577042
    },
    {
      "epoch": "2026-04-20T13:58:17.907744Z",
      "apogee_km": 483.94581001514325,
      "perigee_km": 482.16093995099527,
      "latitude_deg": 2.0172342556072544e-05,
      "longitude_deg": 161.60083148944332,
      "height_km": 482.8648972397907,
      "semi_major_axis_km": 6861.190374983069,
      "eccentricity": 0.00013007,
      "inclination_deg": 43.0026,
      "raan_deg": 219.8458,
      "arg_perigee_deg": 267.7767,
      "mean_anomaly_deg": 92.2936,
      "mean_motion_rev_day": 15.27578571
    },
    {
      "epoch": "2026-04-21T18:13:06.847392Z",
      "apogee_km": 483.9668416795248,
      "perigee_km": 482.1417647928638,
      "latitude_deg": -9.671883992853894e-06,
      "longitude_deg": 90.08842145479248,
      "height_km": 482.9740339194264,
      "semi_major_axis_km": 6861.1913032361945,
      "eccentricity": 0.000133,
      "inclination_deg": 43.003,
      "raan_deg": 213.1974,
      "arg_perigee_deg": 260.9979,
      "mean_anomaly_deg": 99.0722,
      "mean_motion_rev_day": 15.27578261
    },
    {
      "epoch": "2026-04-22T17:45:28.338048Z",
      "apogee_km": 483.97431958494417,
      "perigee_km": 482.1753098471263,
      "latitude_deg": 1.3195723838291168e-05,
      "longitude_deg": 90.49207418951819,
      "height_km": 483.04120088718145,
      "semi_major_axis_km": 6861.211814716035,
      "eccentricity": 0.0001311,
      "inclination_deg": 43.0021,
      "raan_deg": 207.6573,
      "arg_perigee_deg": 257.8333,
      "mean_anomaly_deg": 102.2372,
      "mean_motion_rev_day": 15.27571411
    },
    {
      "epoch": "2026-04-23T12:35:19.681440Z",
      "apogee_km": 484.02655617369874,
      "perigee_km": 481.869568251841,
      "latitude_deg": 3.235358318793982e-05,
      "longitude_deg": 162.82520349254833,
      "height_km": 482.95025532549323,
      "semi_major_axis_km": 6861.08506221277,
      "eccentricity": 0.00015719,
      "inclination_deg": 43.0021,
      "raan_deg": 203.2277,
      "arg_perigee_deg": 257.9483,
      "mean_anomaly_deg": 102.1193,
      "mean_motion_rev_day": 15.27613742
    },
    {
      "epoch": "2026-04-24T13:41:50.802432Z",
      "apogee_km": 484.16994020725997,
      "perigee_km": 481.9880735170782,
      "latitude_deg": 1.4920699791220654e-05,
      "longitude_deg": 139.2567373457439,
      "height_km": 482.9229145937589,
      "semi_major_axis_km": 6861.216006862169,
      "eccentricity": 0.000159,
      "inclination_deg": 43.0023,
      "raan_deg": 197.3201,
      "arg_perigee_deg": 266.4891,
      "mean_anomaly_deg": 93.5779,
      "mean_motion_rev_day": 15.27570011
    },
    {
      "epoch": "2026-04-25T14:48:21.246912Z",
      "apogee_km": 484.1323643643691,
      "perigee_km": 482.0026464858847,
      "latitude_deg": 3.864918040836439e-07,
      "longitude_deg": 115.69140174450052,
      "height_km": 482.8942573126643,
      "semi_major_axis_km": 6861.204505425127,
      "eccentricity": 0.0001552,
      "inclination_deg": 43.0028,
      "raan_deg": 191.4128,
      "arg_perigee_deg": 267.3291,
      "mean_anomaly_deg": 92.7383,
      "mean_motion_rev_day": 15.27573852
    },
    {
      "epoch": "2026-04-26T11:12:23.844960Z",
      "apogee_km": 484.149768539859,
      "perigee_km": 482.02059407255547,
      "latitude_deg": 3.974593916816952e-05,
      "longitude_deg": 164.0421908843686,
      "height_km": 482.94781212685166,
      "semi_major_axis_km": 6861.222181306207,
      "eccentricity": 0.00015516,
      "inclination_deg": 43.0024,
      "raan_deg": 186.6122,
      "arg_perigee_deg": 265.3904,
      "mean_anomaly_deg": 94.6771,
      "mean_motion_rev_day": 15.27567949
    },
    {
      "epoch": "2026-04-27T15:27:13.608864Z",
      "apogee_km": 484.11311006914457,
      "perigee_km": 482.06709214759303,
      "latitude_deg": 1.3209593306664225e-05,
      "longitude_deg": 92.52844431050845,
      "height_km": 482.84522571344473,
      "semi_major_axis_km": 6861.2271011083685,
      "eccentricity": 0.0001491,
      "inclination_deg": 43.0024,
      "raan_deg": 179.9659,
      "arg_perigee_deg": 271.2279,
      "mean_anomaly_deg": 88.8402,
      "mean_motion_rev_day": 15.27566306
    },
    {
      "epoch": "2026-04-28T14:59:34.214784Z",
      "apogee_km": 484.2080002786861,
      "perigee_km": 481.9369399440784,
      "latitude_deg": -4.7626709075135326e-07,
      "longitude_deg": 92.93605772340808,
      "height_km": 482.83099142428625,
      "semi_major_axis_km": 6861.209470111382,
      "eccentricity": 0.0001655,
      "inclination_deg": 43.0026,
      "raan_deg": 174.4261,
      "arg_perigee_deg": 270.9426,
      "mean_anomaly_deg": 89.1236,
      "mean_motion_rev_day": 15.27572194
    },
    {
      "epoch": "2026-04-29T11:23:35.670624Z",
      "apogee_km": 484.2188530108124,
      "perigee_km": 481.8516113672622,
      "latitude_deg": -3.6466118003013854e-05,
      "longitude_deg": 141.29253889476007,
      "height_km": 482.62088197937004,
      "semi_major_axis_km": 6861.172232189037,
      "eccentricity": 0.00017251,
      "inclination_deg": 43.0028,
      "raan_deg": 169.6265,
      "arg_perigee_deg": 279.3177,
      "mean_anomaly_deg": 80.7479,
      "mean_motion_rev_day": 15.2758463
    },
    {
      "epoch": "2026-04-30T14:04:14.407104Z",
      "apogee_km": 484.1912175078287,
      "perigee_km": 481.8320801564141,
      "latitude_deg": 3.275295021899104e-06,
      "longitude_deg": 93.75837614374159,
      "height_km": 482.542227772059,
      "semi_major_axis_km": 6861.148648832121,
      "eccentricity": 0.00017192,
      "inclination_deg": 43.003,
      "raan_deg": 163.3493,
      "arg_perigee_deg": 282.0731,
      "mean_anomaly_deg": 77.9928,
      "mean_motion_rev_day": 15.27592506
    }
  ]
}